OBJECT_NAME,OBJECT_ID,EPOCH,MEAN_MOTION,ECCENTRICITY,INCLINATION,RA_OF_ASC_NODE,ARG_OF_PERICENTER,MEAN_ANOMALY,EPHEMERIS_TYPE,CLASSIFICATION_TYPE,NORAD_CAT_ID,ELEMENT_SET_NO,REV_AT_EPOCH,BSTAR,MEAN_MOTION_DOT,MEAN_MOTION_DDOT
BIRKELAND,2023-001G,2026-05-14T03:47:12.838272,15.39460683,.0005883,97.3364,202.0542,213.9476,146.1395,0,U,55015,999,18711,.18602E-3,.7211E-4,0
ION SCV-008,2023-001AU,2026-05-13T23:54:18.508320,15.28135549,.0016256,97.5690,229.7580,130.5044,229.7615,0,U,55051,999,18611,.16823E-3,.4553E-4,0
ION SCV-007,2023-001BD,2026-05-14T03:13:09.435072,14.77520610,.0013789,97.9022,197.8215,86.8244,273.4544,0,U,55060,999,18122,.43663E-4,.261E-5,0
HUYGENS,2023-001CN,2026-05-14T03:47:19.312224,15.39456549,.0009308,97.3271,201.3279,195.2892,164.8074,0,U,55093,999,18713,.15352E-3,.594E-4,0
SHARJAHSAT-1,2023-001CZ,2026-05-14T02:52:11.968608,15.47783923,.0005231,97.3195,202.4447,210.3714,149.7234,0,U,55104,999,18722,.25851E-3,.13328E-3,0
HORUS 1,2023-025A,2026-05-14T04:39:53.904960,15.23561993,.0002156,97.3472,209.5009,110.9713,249.1755,0,U,55690,999,17887,.15927E-3,.3738E-4,0
HORUS 2,2023-032A,2026-05-14T03:56:36.321792,15.23404298,.0002673,97.3543,210.2444,144.0313,216.1105,0,U,55844,999,17630,.15846E-3,.3701E-4,0
GLOBAL-19,2023-041B,2026-05-14T03:26:49.782336,15.38299392,.00048,42.0024,40.5058,106.3743,253.7625,0,U,55982,999,17668,.2655E-3,.9998E-4,0
BRO-9,2023-054H,2026-05-14T04:03:55.999296,15.81774460,.0007832,97.2982,50.1704,125.1270,235.0734,0,U,56185,999,17368,.85359E-3,.174469E-2,0
ION SCV-010,2023-054Q,2026-05-14T03:04:50.875968,15.25886236,.0011972,97.3829,24.0644,332.6879,27.3728,0,U,56192,999,17100,.12464E-3,.3126E-4,0
TELEOS-2,2023-057C,2026-05-13T07:08:19.310208,14.96394531,.0000724,9.9876,98.2125,270.9356,89.0775,0,U,56310,999,16756,.23769E-3,.3456E-4,0
SNIPE 4,2023-072B,2026-05-14T04:50:44.377728,15.40972306,.0007111,97.5286,339.1622,91.2531,268.9530,0,U,56744,999,16487,.36192E-3,.14845E-3,0
SNIPE 2,2023-072C,2026-05-14T05:02:13.464384,15.45100561,.0006323,97.5283,341.9885,115.1841,245.0063,0,U,56745,999,16499,.41098E-3,.19386E-3,0
2023-072G,2023-072G,2026-05-14T03:50:51.158976,15.48629051,.0005572,97.4942,340.7075,106.9458,253.2404,0,U,56749,999,16519,.36924E-3,.1966E-3,0
GEISAT PRECURSOR,2023-084C,2026-05-14T04:15:03.403008,15.34160660,.0007274,97.6172,274.0341,105.6937,254.5108,0,U,56934,999,16231,.16931E-3,.5517E-4,0
BLACKJACK ACES-3,2023-084U,2026-05-13T08:58:17.324832,15.18300434,.00040909,97.6155,268.3165,115.3678,244.7980,0,U,56950,999,16188,.16833681E-3,.3382E-4,0
BLACKJACK ACES-2,2023-084Z,2026-05-13T20:12:03.086496,15.18297312,.00026552,97.6155,268.8729,99.1516,261.0018,0,U,56955,999,16196,.22724256E-3,.459E-4,0
BLACKJACK ACES-1,2023-084AA,2026-05-13T08:49:31.402848,15.18266981,.00019774,97.6147,268.1753,94.2485,265.8974,0,U,56956,999,11161,.20976253E-3,.4228E-4,0
ION SCV-011,2023-084AB,2026-05-14T02:14:45.718080,15.28496270,.0007955,98.1381,318.2247,148.1217,212.0503,0,U,56957,999,16060,.1389E-3,.3766E-4,0
GHOST-3,2023-084AC,2026-05-14T01:57:29.528064,15.46735779,.0007016,97.6170,280.8652,65.2715,294.9263,0,U,56958,999,16274,.26001E-3,.12927E-3,0
TOMORROW-R2,2023-084AG,2026-05-14T00:09:07.802784,15.88586089,.0001854,97.5935,293.8536,287.8304,72.2765,0,U,56962,999,16360,.53533E-3,.150743E-2,0
AFR-1,2023-084AJ,2026-05-14T04:30:40.721184,15.28248458,.0012043,97.6221,270.0792,98.5215,261.7389,0,U,56964,999,16203,.12102E-3,.3258E-4,0
METEOR-M2 3,2023-091A,2026-05-14T05:34:05.683872,14.24043712,.0002754,98.6108,189.9006,268.0807,92.0056,0,U,57166,999,14968,.15756E-4,-.7E-7,0
UMKA 1 (RS40S),2023-091G,2026-05-14T04:53:55.097088,15.20412061,.0011621,97.5075,193.0386,233.2534,126.7635,0,U,57172,999,15884,.17742E-3,.3803E-4,0
2023-091H,2023-091H,2026-05-14T04:48:28.861920,15.27872410,.0008991,97.5072,197.1341,225.6332,134.4171,0,U,57173,999,15911,.26894E-3,.725E-4,0
2023-091J,2023-091J,2026-05-14T03:30:50.417568,15.13689217,.0011682,97.5081,187.7296,264.4801,95.5098,0,U,57174,999,15848,.11817E-3,.2063E-4,0
CUBEBEL 2 (EU11S),2023-091K,2026-05-14T03:30:48.192768,15.28324468,.0009023,97.5074,197.0785,227.6961,132.3514,0,U,57175,999,15910,.27336E-3,.7473E-4,0
SITRO-AIS 5 (KATYS),2023-091L,2026-05-14T04:05:21.341760,15.28641702,.0010843,97.5083,197.7647,215.1549,144.8976,0,U,57176,999,15914,.28186E-3,.7788E-4,0
ZORKIY-2M 1,2023-091M,2026-05-14T04:36:07.416000,15.20441943,.0012252,97.5116,193.2731,229.9501,130.0660,0,U,57177,999,15883,.20211E-3,.4347E-4,0
CUBESX-HSE 3 (RS42S),2023-091N,2026-05-14T04:21:24.153120,15.30319292,.0010517,97.5114,199.3600,204.5602,155.5138,0,U,57178,999,15922,.2938E-3,.8552E-4,0
