BIRKELAND               
1 55015U 23001G   26134.15778748  .00007211  00000+0  18602-3 0  9995
2 55015  97.3364 202.0542 0005883 213.9476 146.1395 15.39460683187113
ION SCV-008             
1 55051U 23001AU  26133.99604755  .00004553  00000+0  16823-3 0  9991
2 55051  97.5690 229.7580 0016256 130.5044 229.7615 15.28135549186116
ION SCV-007             
1 55060U 23001BD  26134.13413698  .00000261  00000+0  43663-4 0  9997
2 55060  97.9022 197.8215 0013789  86.8244 273.4544 14.77520610181226
HUYGENS                 
1 55093U 23001CN  26134.15786241  .00005940  00000+0  15352-3 0  9994
2 55093  97.3271 201.3279 0009308 195.2892 164.8074 15.39456549187134
SHARJAHSAT-1            
1 55104U 23001CZ  26134.11958297  .00013328  00000+0  25851-3 0  9999
2 55104  97.3195 202.4447 0005231 210.3714 149.7234 15.47783923187222
HORUS 1                 
1 55690U 23025A   26134.19437390  .00003738  00000+0  15927-3 0  9996
2 55690  97.3472 209.5009 0002156 110.9713 249.1755 15.23561993178878
HORUS 2                 
1 55844U 23032A   26134.16430928  .00003701  00000+0  15846-3 0  9992
2 55844  97.3543 210.2444 0002673 144.0313 216.1105 15.23404298176301
GLOBAL-19               
1 55982U 23041B   26134.14363174  .00009998  00000+0  26550-3 0  9999
2 55982  42.0024  40.5058 0004800 106.3743 253.7625 15.38299392176680
BRO-9                   
1 56185U 23054H   26134.16939814  .00174469  00000+0  85359-3 0  9999
2 56185  97.2982  50.1704 0007832 125.1270 235.0734 15.81774460173681
ION SCV-010             
1 56192U 23054Q   26134.12836662  .00003126  00000+0  12464-3 0  9998
2 56192  97.3829  24.0644 0011972 332.6879  27.3728 15.25886236171005
TELEOS-2                
1 56310U 23057C   26133.29744572  .00003456  00000+0  23769-3 0  9994
2 56310   9.9876  98.2125 0000724 270.9356  89.0775 14.96394531167564
SNIPE 4                 
1 56744U 23072B   26134.20190252  .00014845  00000+0  36192-3 0  9992
2 56744  97.5286 339.1622 0007111  91.2531 268.9530 15.40972306164878
SNIPE 2                 
1 56745U 23072C   26134.20987806  .00019386  00000+0  41098-3 0  9998
2 56745  97.5283 341.9885 0006323 115.1841 245.0063 15.45100561164993
2023-072G               
1 56749U 23072G   26134.16031434  .00019660  00000+0  36924-3 0  9991
2 56749  97.4942 340.7075 0005572 106.9458 253.2404 15.48629051165199
GEISAT PRECURSOR        
1 56934U 23084C   26134.17712272  .00005517  00000+0  16931-3 0  9999
2 56934  97.6172 274.0341 0007274 105.6937 254.5108 15.34160660162313
BLACKJACK ACES-3        
1 56950U 23084U   26133.37381163  .00003382  00000+0  16834-3 0  9999
2 56950  97.6155 268.3165 0004090 115.3678 244.7980 15.18300434161882
BLACKJACK ACES-2        
1 56955U 23084Z   26133.84170239  .00004590  00000+0  22724-3 0  9993
2 56955  97.6155 268.8729 0002655  99.1516 261.0018 15.18297312161966
BLACKJACK ACES-1        
1 56956U 23084AA  26133.36772457  .00004228  00000+0  20976-3 0  9996
2 56956  97.6147 268.1753 0001977  94.2485 265.8974 15.18266981111613
ION SCV-011             
1 56957U 23084AB  26134.09358470  .00003766  00000+0  13890-3 0  9996
2 56957  98.1381 318.2247 0007955 148.1217 212.0503 15.28496270160601
GHOST-3                 
1 56958U 23084AC  26134.08159176  .00012927  00000+0  26001-3 0  9995
2 56958  97.6170 280.8652 0007016  65.2715 294.9263 15.46735779162745
TOMORROW-R2             
1 56962U 23084AG  26134.00634031  .00150743  00000+0  53533-3 0  9999
2 56962  97.5935 293.8536 0001854 287.8304  72.2765 15.88586089163607
AFR-1                   
1 56964U 23084AJ  26134.18797131  .00003258  00000+0  12102-3 0  9996
2 56964  97.6221 270.0792 0012043  98.5215 261.7389 15.28248458162031
METEOR-M2 3             
1 57166U 23091A   26134.23201023 -.00000007  00000+0  15756-4 0  9994
2 57166  98.6108 189.9006 0002754 268.0807  92.0056 14.24043712149689
UMKA 1 (RS40S)          
1 57172U 23091G   26134.20410992  .00003803  00000+0  17742-3 0  9997
2 57172  97.5075 193.0386 0011621 233.2534 126.7635 15.20412061158848
2023-091H               
1 57173U 23091H   26134.20033405  .00007250  00000+0  26894-3 0  9996
2 57173  97.5072 197.1341 0008991 225.6332 134.4171 15.27872410159116
2023-091J               
1 57174U 23091J   26134.14641687  .00002063  00000+0  11817-3 0  9993
2 57174  97.5081 187.7296 0011682 264.4801  95.5098 15.13689217158484
CUBEBEL 2 (EU11S)       
1 57175U 23091K   26134.14639112  .00007473  00000+0  27336-3 0  9997
2 57175  97.5074 197.0785 0009023 227.6961 132.3514 15.28324468159101
SITRO-AIS 5 (KATYS)     
1 57176U 23091L   26134.17038590  .00007788  00000+0  28186-3 0  9997
2 57176  97.5083 197.7647 0010843 215.1549 144.8976 15.28641702159149
ZORKIY-2M 1             
1 57177U 23091M   26134.19175250  .00004347  00000+0  20211-3 0  9994
2 57177  97.5116 193.2731 0012252 229.9501 130.0660 15.20441943158838
CUBESX-HSE 3 (RS42S)    
1 57178U 23091N   26134.18152955  .00008552  00000+0  29380-3 0  9999
2 57178  97.5114 199.3600 0010517 204.5602 155.5138 15.30319292159220
